O3B MPOWER F1           
1 54755U 22174A   23182.05333153 -.00000010  00000+0  00000+0 0  9991
2 54755   0.0377   8.1511 0002312 175.1584  28.7930  5.00112160 11209
